STARLINK-32532          
1 62156U 24224T   26064.71416452  .00035538  00000+0  12940-2 0  9993
2 62156  43.0015 180.4181 0000901 269.8806  90.1942 15.27598561 71717
STARLINK-32503          
1 62157U 24224U   26064.76328866  .00047017  00000+0  17076-2 0  9990
2 62157  42.9998 187.7017 0001659 259.3653 100.7012 15.27572191 71367
STARLINK-32508          
1 62158U 24224V   26064.33338736  .00039782  00000+0  14473-2 0  9999
2 62158  42.9967 182.7138 0000592 113.2838 246.8076 15.27581593 71819
STARLINK-32524          
1 62159U 24224W   26064.72522067  .00027803  00000+0  10156-2 0  9990
2 62159  43.0067 183.9646 0002999 288.5783  71.4743 15.27592752 71674
STARLINK-32484          
1 62160U 24224X   26064.68088164  .00027667  00000+0  10118-2 0  9998
2 62160  42.9989 181.0198 0001443 266.3167  93.7519 15.27559624 71861
STARLINK-32497          
1 62161U 24224Y   26064.71751358  .00043451  00000+0  15793-2 0  9998
2 62161  43.0029 183.9050 0001731 255.2593 104.8067 15.27579183 71827
STARLINK-32526          
1 62162U 24224Z   26064.39443560  .00024601  00000+0  90064-3 0  9997
2 62162  43.0018 185.7784 0001444 213.6738 146.4022 15.27576174 71774
STARLINK-32523          
1 62165U 24225C   26064.68851458 -.01042863  00000+0 -98481-1 0  9994
2 62165  70.0037 174.6242 0010369 174.6748 185.4523 14.96619096 69274
STARLINK-32551          
1 62166U 24225D   26064.72996671  .00016862  00000+0  14181-2 0  9990
2 62166  70.0060 174.3744 0002681 278.2470  81.8385 14.98316683 69280
STARLINK-32506          
1 62167U 24225E   26064.70494694  .00003660  00000+0  31442-3 0  9999
2 62167  70.0030 174.6827 0003167 266.1603  93.9194 14.98326450 69271
STARLINK-32562          
1 62168U 24225F   26064.74249130  .00011363  00000+0  95866-3 0  9996
2 62168  70.0026 174.4094 0003389 278.8035  81.2740 14.98324476 69280
STARLINK-32558          
1 62169U 24225G   26064.88435173  .00007167  00000+0  60775-3 0  9994
2 62169  70.0014 174.1043 0003645 268.4079  91.6663 14.98332527 69305
STARLINK-32538          
1 62170U 24225H   26064.69659437  .00001726  00000+0  15244-3 0  9992
2 62170  70.0027 174.6531 0003661 266.8681  93.2060 14.98331713 69278
STARLINK-32257          
1 62171U 24225J   26064.91668981 -.00050661  00000+0 -42649-2 0  9994
2 62171  70.0017 173.8258 0003089 269.5752  84.9112 14.98364368  5714
STARLINK-32407          
1 62172U 24225K   26064.73413691  .00005163  00000+0  44012-3 0  9993
2 62172  70.0023 174.3791 0003442 276.7250  83.3517 14.98333950 69283
STARLINK-32575          
1 62173U 24225L   26064.71089770  .00002152  00000+0  18808-3 0  9998
2 62173  70.0038 164.2990 0003018 254.4783 105.6043 14.98327799 69536
