[{"OBJECT_NAME":"STARLINK-32532","OBJECT_ID":"2024-224T","EPOCH":"2026-03-05T17:08:23.814528","MEAN_MOTION":15.27598561,"ECCENTRICITY":9.013e-5,"INCLINATION":43.0015,"RA_OF_ASC_NODE":180.4181,"ARG_OF_PERICENTER":269.8806,"MEAN_ANOMALY":90.1942,"EPHEMERIS_TYPE":0,"CLASSIFICATION_TYPE":"U","NORAD_CAT_ID":62156,"ELEMENT_SET_NO":999,"REV_AT_EPOCH":7171,"BSTAR":0.0012940051,"MEAN_MOTION_DOT":0.00035538,"MEAN_MOTION_DDOT":0},{"OBJECT_NAME":"STARLINK-32503","OBJECT_ID":"2024-224U","EPOCH":"2026-03-05T18:19:08.140224","MEAN_MOTION":15.27572191,"ECCENTRICITY":0.0001659,"INCLINATION":42.9998,"RA_OF_ASC_NODE":187.7017,"ARG_OF_PERICENTER":259.3653,"MEAN_ANOMALY":100.7012,"EPHEMERIS_TYPE":0,"CLASSIFICATION_TYPE":"U","NORAD_CAT_ID":62157,"ELEMENT_SET_NO":999,"REV_AT_EPOCH":7136,"BSTAR":0.0017076076,"MEAN_MOTION_DOT":0.00047017,"MEAN_MOTION_DDOT":0},{"OBJECT_NAME":"STARLINK-32508","OBJECT_ID":"2024-224V","EPOCH":"2026-03-05T08:00:04.667904","MEAN_MOTION":15.27581593,"ECCENTRICITY":5.92e-5,"INCLINATION":42.9967,"RA_OF_ASC_NODE":182.7138,"ARG_OF_PERICENTER":113.2838,"MEAN_ANOMALY":246.8076,"EPHEMERIS_TYPE":0,"CLASSIFICATION_TYPE":"U","NORAD_CAT_ID":62158,"ELEMENT_SET_NO":999,"REV_AT_EPOCH":7181,"BSTAR":0.0014473,"MEAN_MOTION_DOT":0.00039782,"MEAN_MOTION_DDOT":0},{"OBJECT_NAME":"STARLINK-32524","OBJECT_ID":"2024-224W","EPOCH":"2026-03-05T17:24:19.065888","MEAN_MOTION":15.27592752,"ECCENTRICITY":0.00029996,"INCLINATION":43.0067,"RA_OF_ASC_NODE":183.9646,"ARG_OF_PERICENTER":288.5783,"MEAN_ANOMALY":71.4743,"EPHEMERIS_TYPE":0,"CLASSIFICATION_TYPE":"U","NORAD_CAT_ID":62159,"ELEMENT_SET_NO":999,"REV_AT_EPOCH":7167,"BSTAR":0.0010156019,"MEAN_MOTION_DOT":0.00027803,"MEAN_MOTION_DDOT":0},{"OBJECT_NAME":"STARLINK-32484","OBJECT_ID":"2024-224X","EPOCH":"2026-03-05T16:20:28.173696","MEAN_MOTION":15.27559624,"ECCENTRICITY":0.00014433,"INCLINATION":42.9989,"RA_OF_ASC_NODE":181.0198,"ARG_OF_PERICENTER":266.3167,"MEAN_ANOMALY":93.7519,"EPHEMERIS_TYPE":0,"CLASSIFICATION_TYPE":"U","NORAD_CAT_ID":62160,"ELEMENT_SET_NO":999,"REV_AT_EPOCH":7186,"BSTAR":0.0010117657,"MEAN_MOTION_DOT":0.00027667,"MEAN_MOTION_DDOT":0},{"OBJECT_NAME":"STARLINK-32497","OBJECT_ID":"2024-224Y","EPOCH":"2026-03-05T17:13:13.173312","MEAN_MOTION":15.27579183,"ECCENTRICITY":0.0001731,"INCLINATION":43.0029,"RA_OF_ASC_NODE":183.905,"ARG_OF_PERICENTER":255.2593,"MEAN_ANOMALY":104.8067,"EPHEMERIS_TYPE":0,"CLASSIFICATION_TYPE":"U","NORAD_CAT_ID":62161,"ELEMENT_SET_NO":999,"REV_AT_EPOCH":7182,"BSTAR":0.0015792505,"MEAN_MOTION_DOT":0.00043451,"MEAN_MOTION_DDOT":0},{"OBJECT_NAME":"STARLINK-32526","OBJECT_ID":"2024-224Z","EPOCH":"2026-03-05T09:27:59.235840","MEAN_MOTION":15.27576174,"ECCENTRICITY":0.0001444,"INCLINATION":43.0018,"RA_OF_ASC_NODE":185.7784,"ARG_OF_PERICENTER":213.6738,"MEAN_ANOMALY":146.4022,"EPHEMERIS_TYPE":0,"CLASSIFICATION_TYPE":"U","NORAD_CAT_ID":62162,"ELEMENT_SET_NO":999,"REV_AT_EPOCH":7177,"BSTAR":0.00090064,"MEAN_MOTION_DOT":0.00024601,"MEAN_MOTION_DDOT":0},{"OBJECT_NAME":"STARLINK-32523","OBJECT_ID":"2024-225C","EPOCH":"2026-03-05T16:31:27.659712","MEAN_MOTION":14.96619096,"ECCENTRICITY":0.00103695,"INCLINATION":70.0037,"RA_OF_ASC_NODE":174.6242,"ARG_OF_PERICENTER":174.6748,"MEAN_ANOMALY":185.4523,"EPHEMERIS_TYPE":0,"CLASSIFICATION_TYPE":"U","NORAD_CAT_ID":62165,"ELEMENT_SET_NO":999,"REV_AT_EPOCH":6927,"BSTAR":-0.098481179,"MEAN_MOTION_DOT":-0.01042863,"MEAN_MOTION_DDOT":0},{"OBJECT_NAME":"STARLINK-32551","OBJECT_ID":"2024-225D","EPOCH":"2026-03-05T17:31:09.123744","MEAN_MOTION":14.98316683,"ECCENTRICITY":0.00026813,"INCLINATION":70.006,"RA_OF_ASC_NODE":174.3744,"ARG_OF_PERICENTER":278.247,"MEAN_ANOMALY":81.8385,"EPHEMERIS_TYPE":0,"CLASSIFICATION_TYPE":"U","NORAD_CAT_ID":62166,"ELEMENT_SET_NO":999,"REV_AT_EPOCH":6928,"BSTAR":0.0014180936,"MEAN_MOTION_DOT":0.00016862,"MEAN_MOTION_DDOT":0},{"OBJECT_NAME":"STARLINK-32506","OBJECT_ID":"2024-225E","EPOCH":"2026-03-05T16:55:07.415616","MEAN_MOTION":14.9832645,"ECCENTRICITY":0.00031674,"INCLINATION":70.003,"RA_OF_ASC_NODE":174.6827,"ARG_OF_PERICENTER":266.1603,"MEAN_ANOMALY":93.9194,"EPHEMERIS_TYPE":0,"CLASSIFICATION_TYPE":"U","NORAD_CAT_ID":62167,"ELEMENT_SET_NO":999,"REV_AT_EPOCH":6927,"BSTAR":0.00031441935,"MEAN_MOTION_DOT":3.66e-5,"MEAN_MOTION_DDOT":0},{"OBJECT_NAME":"STARLINK-32562","OBJECT_ID":"2024-225F","EPOCH":"2026-03-05T17:49:11.248320","MEAN_MOTION":14.98324476,"ECCENTRICITY":0.00033894,"INCLINATION":70.0026,"RA_OF_ASC_NODE":174.4094,"ARG_OF_PERICENTER":278.8035,"MEAN_ANOMALY":81.274,"EPHEMERIS_TYPE":0,"CLASSIFICATION_TYPE":"U","NORAD_CAT_ID":62168,"ELEMENT_SET_NO":999,"REV_AT_EPOCH":6928,"BSTAR":0.00095865762,"MEAN_MOTION_DOT":0.00011363,"MEAN_MOTION_DDOT":0},{"OBJECT_NAME":"STARLINK-32558","OBJECT_ID":"2024-225G","EPOCH":"2026-03-05T21:13:27.989472","MEAN_MOTION":14.98332527,"ECCENTRICITY":0.00036456,"INCLINATION":70.0014,"RA_OF_ASC_NODE":174.1043,"ARG_OF_PERICENTER":268.4079,"MEAN_ANOMALY":91.6663,"EPHEMERIS_TYPE":0,"CLASSIFICATION_TYPE":"U","NORAD_CAT_ID":62169,"ELEMENT_SET_NO":999,"REV_AT_EPOCH":6930,"BSTAR":0.00060775356,"MEAN_MOTION_DOT":7.167e-5,"MEAN_MOTION_DDOT":0},{"OBJECT_NAME":"STARLINK-32538","OBJECT_ID":"2024-225H","EPOCH":"2026-03-05T16:43:05.753568","MEAN_MOTION":14.98331713,"ECCENTRICITY":0.0003661,"INCLINATION":70.0027,"RA_OF_ASC_NODE":174.6531,"ARG_OF_PERICENTER":266.8681,"MEAN_ANOMALY":93.206,"EPHEMERIS_TYPE":0,"CLASSIFICATION_TYPE":"U","NORAD_CAT_ID":62170,"ELEMENT_SET_NO":999,"REV_AT_EPOCH":6927,"BSTAR":0.00015243664,"MEAN_MOTION_DOT":1.726e-5,"MEAN_MOTION_DDOT":0},{"OBJECT_NAME":"STARLINK-32257","OBJECT_ID":"2024-225J","EPOCH":"2026-03-05T22:00:01.999584","MEAN_MOTION":14.98364368,"ECCENTRICITY":0.00030897,"INCLINATION":70.0017,"RA_OF_ASC_NODE":173.8258,"ARG_OF_PERICENTER":269.5752,"MEAN_ANOMALY":84.9112,"EPHEMERIS_TYPE":0,"CLASSIFICATION_TYPE":"U","NORAD_CAT_ID":62171,"ELEMENT_SET_NO":999,"REV_AT_EPOCH":571,"BSTAR":-0.0042649439,"MEAN_MOTION_DOT":-0.00050661,"MEAN_MOTION_DDOT":0},{"OBJECT_NAME":"STARLINK-32407","OBJECT_ID":"2024-225K","EPOCH":"2026-03-05T17:37:09.429024","MEAN_MOTION":14.9833395,"ECCENTRICITY":0.00034426,"INCLINATION":70.0023,"RA_OF_ASC_NODE":174.3791,"ARG_OF_PERICENTER":276.725,"MEAN_ANOMALY":83.3517,"EPHEMERIS_TYPE":0,"CLASSIFICATION_TYPE":"U","NORAD_CAT_ID":62172,"ELEMENT_SET_NO":999,"REV_AT_EPOCH":6928,"BSTAR":0.00044011761,"MEAN_MOTION_DOT":5.163e-5,"MEAN_MOTION_DDOT":0},{"OBJECT_NAME":"STARLINK-32575","OBJECT_ID":"2024-225L","EPOCH":"2026-03-05T17:03:41.561280","MEAN_MOTION":14.98327799,"ECCENTRICITY":0.00030186,"INCLINATION":70.0038,"RA_OF_ASC_NODE":164.299,"ARG_OF_PERICENTER":254.4783,"MEAN_ANOMALY":105.6043,"EPHEMERIS_TYPE":0,"CLASSIFICATION_TYPE":"U","NORAD_CAT_ID":62173,"ELEMENT_SET_NO":999,"REV_AT_EPOCH":6953,"BSTAR":0.000188075,"MEAN_MOTION_DOT":2.152e-5,"MEAN_MOTION_DDOT":0}]
